NORAD_CAT_ID,OBJECT_NAME,OBJECT_TYPE,EPOCH,MEAN_MOTION,ECCENTRICITY,INCLINATION,RA_OF_ASC_NODE,ARG_OF_PERICENTER,MEAN_ANOMALY,BSTAR,MEAN_MOTION_DOT,MEAN_MOTION_DDOT,TLE_LINE0,TLE_LINE1,TLE_LINE2,SEMIMAJOR_AXIS,PERIOD,APOGEE,PERIGEE,DECAYED
52001.0,STARLINK-3659,PAYLOAD,2022-10-03 15:08:36,15.08853233,0.0001673,53.2201,244.3225,66.327,293.7898,0.00014435,2.011e-05,0.0,0 STARLINK-3659,1 52001U 22025AX  22276.63098118  .00002011  00000-0  14435-3 0  9998,2 52001  53.2201 244.3225 0001673  66.3270 293.7898 15.08853233 33286,6917.84,95.437,540.862,538.548,0.0
52001.0,STARLINK-3659,PAYLOAD,2022-10-04 02:16:18,15.08841407,0.0001824,53.2204,242.2416,71.039,289.08,0.00025491,3.771e-05,0.0,0 STARLINK-3659,1 52001U 22025AX  22277.09466383  .00003771  00000-0  25491-3 0  9990,2 52001  53.2204 242.2416 0001824  71.0390 289.0800 15.08841407 33351,6917.876,95.437,541.003,538.479,0.0
52001.0,STARLINK-3659,PAYLOAD,2022-10-04 05:27:05,15.08840298,0.0001561999999999,53.2197,241.6464,73.0363,287.08,0.00022604,3.311e-05,0.0,0 STARLINK-3659,1 52001U 22025AX  22277.22714567  .00003311  00000-0  22604-3 0  9998,2 52001  53.2197 241.6464 0001562  73.0363 287.0800 15.08840298 31846,6917.879,95.438,540.825,538.664,0.0
52001.0,STARLINK-3659,PAYLOAD,2022-10-05 02:07:06,15.08844448,0.0001558,53.2193,237.7804,75.4771,284.6393,7.5060000000000015e-06,-1.69e-06,0.0,0 STARLINK-3659,1 52001U 22025AX  22278.08827067 -.00000169  00000-0  75060-5 0  9998,2 52001  53.2193 237.7804 0001558  75.4771 284.6393 15.08844448 33506,6917.8669999999975,95.437,540.81,538.654,0.0
52001.0,STARLINK-3659,PAYLOAD,2022-10-05 06:53:16,15.08841602,0.0001536,53.2207,236.8896,72.5169,287.5991,-1.6029000000000002e-05,-5.43e-06,0.0,0 STARLINK-3659,1 52001U 22025AX  22278.28699267 -.00000543  00000-0 -16029-4 0  9995,2 52001  53.2207 236.8896 0001536  72.5169 287.5991 15.08841602 32007,6917.875,95.437,540.803,538.678,0.0
52001.0,STARLINK-3659,PAYLOAD,2022-10-05 14:50:11,15.08838773,0.0001462,53.2207,235.4027,78.9367,281.1789,-2.0967e-05,-6.22e-06,0.0,0 STARLINK-3659,1 52001U 22025AX  22278.61819421 -.00000622  00000-0 -20967-4 0  9992,2 52001  53.2207 235.4027 0001462  78.9367 281.1789 15.08838773 32051,6917.884,95.438,540.761,538.738,0.0
52001.0,STARLINK-3659,PAYLOAD,2022-10-06 06:44:02,15.08844371,0.000139,53.2208,232.4293,70.6922,289.422,-6.0171e-05,-1.246e-05,0.0,0 STARLINK-3659,1 52001U 22025AX  22279.28059015 -.00001246  00000-0 -60171-4 0  9995,2 52001  53.2208 232.4293 0001390  70.6922 289.4220 15.08844371 32153,6917.8669999999975,95.437,540.694,538.77,0.0
52001.0,STARLINK-3659,PAYLOAD,2022-10-07 03:24:04,15.08832721,0.0001313,53.2215,228.5643,66.6795,293.4335,4.2286e-05,3.85e-06,0.0,0 STARLINK-3659,1 52001U 22025AX  22280.14171589  .00000385  00000-0  42286-4 0  9991,2 52001  53.2215 228.5643 0001313  66.6795 293.4335 15.08832721 33816,6917.903,95.438,540.6759999999998,538.859,0.0
52001.0,STARLINK-3659,PAYLOAD,2022-10-07 06:34:50,15.08837357,0.0001385,53.2206,227.9691,69.3207,290.7934,9.1014e-05,1.161e-05,0.0,0 STARLINK-3659,1 52001U 22025AX  22280.27419338  .00001161  00000-0  91014-4 0  9998,2 52001  53.2206 227.9691 0001385  69.3207 290.7934 15.08837357 32307,6917.888000000001,95.438,540.712,538.795,0.0
52001.0,STARLINK-3659,PAYLOAD,2022-10-08 04:50:15,15.08826728,0.0001344,53.2193,223.8065,69.3552,290.7584,1.9681e-05,2.5e-07,0.0,0 STARLINK-3659,1 52001U 22025AX  22281.20156340  .00000025  00000-0  19681-4 0  9991,2 52001  53.2193 223.8065 0001344  69.3552 290.7584 15.08826728 33975,6917.920999999999,95.438,540.716,538.856,0.0
52001.0,STARLINK-3659,PAYLOAD,2022-10-09 06:16:25,15.0882916,0.0001334,53.2197,219.0485,70.1336,289.98,3.2605e-05,2.31e-06,0.0,0 STARLINK-3659,1 52001U 22025AX  22282.26140677  .00000231  00000-0  32605-4 0  9994,2 52001  53.2197 219.0485 0001334  70.1336 289.9800 15.08829160 34134,6917.9140000000025,95.438,540.701,538.856,0.0
52001.0,STARLINK-3659,PAYLOAD,2022-10-09 12:37:57,15.08840277,0.0001283,53.2201,217.8607,80.8862,279.2275,6.9121e-05,8.12e-06,0.0,0 STARLINK-3659,1 52001U 22025AX  22282.52635903  .00000812  00000-0  69121-4 0  9992,2 52001  53.2201 217.8607 0001283  80.8862 279.2275 15.08840277 34171,6917.88,95.438,540.632,538.857,0.0
52001.0,STARLINK-3659,PAYLOAD,2022-10-10 02:56:26,15.0883386,0.0001277,53.2206,215.1838,81.0623,279.0513,5.9636e-05,6.61e-06,0.0,0 STARLINK-3659,1 52001U 22025AX  22283.12252473  .00000661  00000-0  59636-4 0  9998,2 52001  53.2206 215.1838 0001277  81.0623 279.0513 15.08833860 34267,6917.899,95.438,540.648,538.881,0.0
52001.0,STARLINK-3659,PAYLOAD,2022-10-10 12:28:45,15.08825682,0.0001579,53.2202,213.3989,76.4041,283.7127,6.9861e-05,8.24e-06,0.0,0 STARLINK-3659,1 52001U 22025AX  22283.51997305  .00000824  00000-0  69861-4 0  9993,2 52001  53.2202 213.3989 0001579  76.4041 283.7127 15.08825682 32799,6917.924,95.438,540.881,538.697,0.0
52001.0,STARLINK-3659,PAYLOAD,2022-10-10 20:25:41,15.08830607,0.0001281999999999,53.2207,211.9137,85.0927,275.0211,4.373e-05,4.08e-06,0.0,0 STARLINK-3659,1 52001U 22025AX  22283.85117163  .00000408  00000-0  43730-4 0  9991,2 52001  53.2207 211.9137 0001282  85.0927 275.0211 15.08830607 32840,6917.909000000002,95.438,540.661,538.887,0.0
52001.0,STARLINK-3659,PAYLOAD,2022-10-11 04:22:36,15.08834002,0.0001452,53.2201,210.4256,76.4351,283.6803,0.00011322,1.514e-05,0.0,0 STARLINK-3659,1 52001U 22025AX  22284.18237057  .00001514  00000-0  11322-3 0  9993,2 52001  53.2201 210.4256 0001452  76.4351 283.6803 15.08834002 34425,6917.899,95.438,540.768,538.759,0.0
52001.0,STARLINK-3659,PAYLOAD,2022-10-11 18:41:06,15.08826396,0.0001699,53.2221,207.75,72.4702,287.6476,-6.0503e-05,-1.25e-05,0.0,0 STARLINK-3659,1 52001U 22025AX  22284.77854552 -.00001250  00000-0 -60503-4 0  9998,2 52001  53.2221 207.7500 0001699  72.4702 287.6476 15.08826396 32983,6917.922,95.438,540.962,538.612,0.0
52001.0,STARLINK-3659,PAYLOAD,2022-10-12 12:10:19,15.08842622,0.0001494,53.2206,204.4796,78.2362,281.8797,7.276300000000001e-05,8.7e-06,0.0,0 STARLINK-3659,1 52001U 22025AX  22285.50717489  .00000870  00000-0  72763-4 0  9993,2 52001  53.2206 204.4796 0001494  78.2362 281.8797 15.08842622 33091,6917.871999999999,95.437,540.771,538.7040000000002,0.0
52001.0,STARLINK-3659,PAYLOAD,2022-10-12 18:31:53,15.08832148,0.0001531999999999,53.2198,203.2905,82.1553,277.9613,0.00014328,1.993e-05,0.0,0 STARLINK-3659,1 52001U 22025AX  22285.77214371  .00001993  00000-0  14328-3 0  9993,2 52001  53.2198 203.2905 0001532  82.1553 277.9613 15.08832148 34668,6917.904,95.438,540.8290000000002,538.71,0.0
52001.0,STARLINK-3659,PAYLOAD,2022-10-13 12:01:07,15.08845009,0.0001386999999999,53.2195,200.0192,92.0713,268.0438,0.00027926,4.16e-05,0.0,0 STARLINK-3659,1 52001U 22025AX  22286.50078123  .00004160  00000-0  27926-3 0  9995,2 52001  53.2195 200.0192 0001387  92.0713 268.0438 15.08845009 34772,6917.865,95.437,540.69,538.771,0.0
52001.0,STARLINK-3659,PAYLOAD,2022-10-14 05:30:21,15.08858473,0.0001665,53.2198,196.7491,82.2307,277.8874,0.00044607,6.822e-05,0.0,0 STARLINK-3659,1 52001U 22025AX  22287.22941702  .00006822  00000-0  44607-3 0  9999,2 52001  53.2198 196.7491 0001665  82.2307 277.8874 15.08858473 33351,6917.824000000001,95.436,540.841,538.5369999999998,0.0
52001.0,STARLINK-3659,PAYLOAD,2022-10-14 19:48:49,15.08857973,0.000135,53.2195,194.0726,84.8263,275.2883,0.0003177999999999,4.776e-05,0.0,0 STARLINK-3659,1 52001U 22025AX  22287.82557237  .00004776  00000-0  31780-3 0  9995,2 52001  53.2195 194.0726 0001350  84.8263 275.2883 15.08857973 33446,6917.825,95.436,540.624,538.757,0.0
52001.0,STARLINK-3659,PAYLOAD,2022-10-15 00:34:58,15.08851141,0.0001202,53.2184,193.1806,71.3344,288.7778,2.9713e-05,1.85e-06,0.0,0 STARLINK-3659,1 52001U 22025AX  22288.02429102  .00000185  00000-0  29713-4 0  9991,2 52001  53.2184 193.1806 0001202  71.3344 288.7778 15.08851141 35007,6917.846,95.437,540.543,538.88,0.0
52001.0,STARLINK-3659,PAYLOAD,2022-10-15 05:21:08,15.08854213,0.0001375999999999,53.2188,192.2891,76.3756,283.7390000000001,0.00017476,2.496e-05,0.0,0 STARLINK-3659,1 52001U 22025AX  22288.22300975  .00002496  00000-0  17476-3 0  9998,2 52001  53.2188 192.2891 0001376  76.3756 283.7390 15.08854213 33500,6917.837,95.437,540.654,538.75,0.0
52001.0,STARLINK-3659,PAYLOAD,2022-10-15 19:39:36,15.0884311,0.0001334,53.2197,189.6147,78.8517,281.2625,-5.6659e-05,-1.19e-05,0.0,0 STARLINK-3659,1 52001U 22025AX  22288.81917173 -.00001190  00000-0 -56659-4 0  9996,2 52001  53.2197 189.6147 0001334  78.8517 281.2625 15.08843110 33597,6917.871,95.437,540.659,538.813,0.0
52001.0,STARLINK-3659,PAYLOAD,2022-10-16 00:25:46,15.08837915,0.0001411,53.2192,188.7208,78.5059,281.6091,-0.00012693,-2.307e-05,0.0,0 STARLINK-3659,1 52001U 22025AX  22289.01789460 -.00002307  00000-0 -12693-3 0  9995,2 52001  53.2192 188.7208 0001411  78.5059 281.6091 15.08837915 35155,6917.887,95.438,540.7280000000002,538.776,0.0
52001.0,STARLINK-3659,PAYLOAD,2022-10-16 09:58:05,15.08828519,0.0001369,53.2189,186.9369,76.7343,283.3802,-0.00028044,-4.747e-05,0.0,0 STARLINK-3659,1 52001U 22025AX  22289.41534064 -.00004747  00000-0 -28044-3 0  9994,2 52001  53.2189 186.9369 0001369  76.7343 283.3802 15.08828519 33682,6917.915,95.438,540.7280000000002,538.8330000000002,0.0
52001.0,STARLINK-3659,PAYLOAD,2022-10-16 16:19:38,15.08835189,9.62e-05,53.2193,185.7467,78.321,281.789,-0.00015176,-2.702e-05,0.0,0 STARLINK-3659,1 52001U 22025AX  22289.68030345 -.00002702  00000-0 -15176-3 0  9997,2 52001  53.2193 185.7467 0000962  78.3210 281.7890 15.08835189 33727,6917.895,95.438,540.4259999999998,539.095,0.0
52001.0,STARLINK-3659,PAYLOAD,2022-10-17 09:48:52,15.08834615,0.000122,53.2199,182.4765,69.9231,290.1892,1.7602000000000002e-05,-8e-08,0.0,0 STARLINK-3659,1 52001U 22025AX  22290.40894580 -.00000008  00000-0  17602-4 0  9991,2 52001  53.2199 182.4765 0001220  69.9231 290.1892 15.08834615 35366,6917.897,95.438,540.606,538.918,0.0
